STARLINK-31443          
1 59393U 24062V   25286.50294034  .00066981  00000+0  21006-2 0  9993
2 59393  53.1589 206.5656 0001967 105.6357 254.4862 15.32457285 87314
STARLINK-31607          
1 59394U 24062W   25286.54441849 -.00003441  00000+0 -10414-3 0  9992
2 59394  53.1590 219.0768 0001339 100.6779 259.4372 15.30187514 87130
YAOGAN-42 01            
1 59395U 24063A   25286.94929907  .00017504  00000+0  72811-3 0  9996
2 59395  34.9962 234.4358 0005789 260.7833  99.2227 15.22908529 85280
STARLINK-31608          
1 59397U 24062X   25286.11677847 -.00000942  00000+0 -19707-4 0  9995
2 59397  53.1598 221.3841 0001132  84.2557 275.8573 15.30178969 87028
STARLINK-31534          
1 59398U 24064A   25286.65868852  .00000249  00000+0  18595-4 0  9997
2 59398  43.0012 166.1606 0001481 282.4365  77.6320 15.27572836 86685
STARLINK-31544          
1 59399U 24064B   25286.97162340 -.00001080  00000+0 -29700-4 0  9998
2 59399  43.0004 165.0677 0001508 283.0169  77.0514 15.27589885 86784
STARLINK-31545          
1 59400U 24064C   25286.93179559  .00000265  00000+0  19143-4 0  9999
2 59400  43.0039 164.7649 0001316 274.8299  85.2402 15.27577253 86782
STARLINK-31507          
1 59401U 24064D   25286.93822232 -.00000439  00000+0 -64171-5 0  9990
2 59401  42.9995 164.8041 0001262 266.2090  93.8617 15.27569504 86720
STARLINK-31543          
1 59402U 24064E   25286.96391461 -.00001109  00000+0 -30768-4 0  9998
2 59402  43.0039 165.0030 0002353 278.4454  81.6131 15.27580399 86781
STARLINK-31366          
1 59403U 24064F   25286.94979979 -.00002984  00000+0 -99049-4 0  9992
2 59403  42.9983 164.8932 0001227 274.6803  85.3909 15.27551990 86780
STARLINK-31374          
1 59404U 24064G   25286.92917107  .00001090  00000+0  49117-4 0  9992
2 59404  43.0019 113.9290 0001511 267.1936  92.8742 15.27580584 87112
STARLINK-31400          
1 59405U 24064H   25286.40098414  .00003066  00000+0  12089-3 0  9999
2 59405  43.0005 167.6642 0001435 286.5653  73.5041 15.27586232 86709
STARLINK-31391          
1 59406U 24064J   25286.92794191  .00001022  00000+0  46652-4 0  9996
2 59406  43.0025 164.7374 0001083 271.4367  88.6360 15.27575616 86789
STARLINK-31387          
1 59407U 24064K   25286.96777295 -.00001446  00000+0 -43050-4 0  9998
2 59407  43.0033 165.0375 0001435 271.2310  88.8377 15.27569922 86784
STARLINK-31396          
1 59409U 24064M   25286.93967429 -.00001635  00000+0 -49904-4 0  9991
2 59409  43.0065 154.4314 0001511 278.9850  81.0831 15.27575527 86849
STARLINK-31412          
1 59410U 24064N   25286.68437978  .00000886  00000+0  41740-4 0  9991
2 59410  42.9992 166.3407 0001603 285.2069  74.8605 15.27575942 86747
STARLINK-31483          
1 59411U 24064P   25286.95749392  .00033838  00000+0  12339-2 0  9991
2 59411  42.9998 164.9518 0002659 271.9643  88.0904 15.27570190 86786
STARLINK-31568          
1 59412U 24064Q   25286.37157407  .00002231  00000+0  90559-4 0  9993
2 59412  43.0022 168.2964 0001287 275.1470  84.9235 15.27584523 86696
STARLINK-31615          
1 59413U 24064R   25286.95331599 -.00000419  00000+0 -57131-5 0  9992
2 59413  43.0040 157.9790 0000201 288.0930  71.9900 15.27576235 86863
STARLINK-31457          
1 59414U 24064S   25286.95588875 -.00001356  00000+0 -39766-4 0  9998
2 59414  43.0038 157.9952 0001422 267.5135  92.5554 15.27567215 86868
STARLINK-31398          
1 59415U 24064T   25286.68052346 -.00001753  00000+0 -54181-4 0  9997
2 59415  42.9979 166.3053 0001597 257.2118 102.8555 15.27585669 86743
STARLINK-31399          
1 59416U 24064U   25286.93565163  .00000136  00000+0  14476-4 0  9997
2 59416  42.9994 164.7818 0002674 280.1691  79.8859 15.27572138 86781
