OBJECT_NAME,OBJECT_ID,NORAD_CAT_ID,EPOCH,MEAN_MOTION,ECCENTRICITY,INCLINATION,RA_OF_ASC_NODE,ARG_OF_PERICENTER,MEAN_ANOMALY,MEAN_MOTION_DOT,MEAN_MOTION_DDOT,REV_AT_EPOCH,BSTAR,orbital_period_min,altitude_estimated,drag_index,energy_index,orbit_type,orbit_family,anomaly_score,anomaly_flag
STARLINK-31443,2024-062V,59393,2025-10-13 12:04:14.045376,15.32457285,0.00019674,53.1589,206.5656,105.6357,254.4862,0.00066981,0.0,8731,0.0021005748,93.96673004167944,475.6204977133675,4.1326708615199997e-07,0.0021290862159350555,LEO,LEO,-0.2645869806593138,1
STARLINK-31607,2024-062W,59394,2025-10-13 13:03:57.757536,15.30187514,0.00013391,53.159,219.0768,100.6779,259.4372,-3.441e-05,0.0,8713,-0.00010414385,94.1061135857628,482.3893506182112,-1.3945902953499999e-08,0.002135407169708837,LEO,LEO,-0.2785440478963238,1
YAOGAN-42 01,2024-063A,59395,2025-10-13 22:46:59.439648,15.22908529,0.00057898,34.9962,234.4358,260.7833,99.2227,0.00017504,0.0,8528,0.00072811042,94.5559088138773,504.20990519283623,4.2156137097159996e-07,0.002155868993928018,LEO,LEO,-0.23271937356598182,1
STARLINK-31608,2024-062X,59397,2025-10-13 02:48:09.659808,15.30178969,0.00011326,53.1598,221.3841,84.2557,275.8573,-9.42e-06,0.0,8702,-1.9707482e-05,94.10663910386027,482.41486491367687,-2.23206941132e-09,0.0021354310193441852,LEO,LEO,-0.28014162166368856,1
STARLINK-31534,2024-064A,59398,2025-10-13 15:48:30.688128,15.27572836,0.00014815,43.0012,166.1606,282.4365,77.632,2.49e-06,0.0,8668,1.8594894e-05,94.26719080516564,490.20754771672455,2.7548335461e-09,0.0021427235875524464,LEO,LEO,-0.264956467664745,1
STARLINK-31544,2024-064B,59399,2025-10-13 23:19:08.261760,15.27589885,0.00015084,43.0004,165.0677,283.0169,77.0514,-1.08e-05,0.0,8678,-2.9700021e-05,94.26613871562785,490.1564969531555,-4.479951167640001e-09,0.0021426757591517147,LEO,LEO,-0.2647435134578048,1
STARLINK-31545,2024-064C,59400,2025-10-13 22:21:47.138976,15.27577253,0.00013162,43.0039,164.7649,274.8299,85.2402,2.65e-06,0.0,8678,1.9143409e-05,94.26691823094332,490.19432155820687,2.51965549258e-09,0.0021427111961707544,LEO,LEO,-0.2683155342356404,1
STARLINK-31507,2024-064D,59401,2025-10-13 22:31:02.408448,15.27569504,0.00012621,42.9995,164.8041,266.209,93.8617,-4.39e-06,0.0,8672,-6.417084e-06,94.26739642479797,490.21752501952597,-8.0990017164e-10,0.0021427329351634866,LEO,LEO,-0.26902776573239584,1
STARLINK-31543,2024-064E,59402,2025-10-13 23:08:02.222304,15.27580399,0.00023535,43.0039,165.003,278.4454,81.6131,-1.109e-05,0.0,8678,-3.0767594e-05,94.26672409142375,490.1849012903731,-7.2411532478999995e-09,0.0021427023704978323,LEO,LEO,-0.2658730967829565,1
STARLINK-31366,2024-064F,59403,2025-10-13 22:47:42.701856,15.2755199,0.00012278,42.9983,164.8932,274.6803,85.3909,-2.984e-05,0.0,8678,-9.9049489e-05,94.26847723853902,490.2699693377963,-1.2161296259419999e-08,0.002142782070040738,LEO,LEO,-0.26702210378004243,1
STARLINK-31374,2024-064G,59404,2025-10-13 22:18:00.380448,15.27580584,0.00015113,43.0019,113.929,267.1936,92.8742,1.09e-05,0.0,8711,4.9117226e-05,94.2667126751069,490.18434733411686,7.423086365380001e-09,0.0021427018515073207,LEO,LEO,-0.2689825770281104,1
STARLINK-31400,2024-064H,59405,2025-10-13 09:37:25.029696,15.27586232,0.00014355,43.0005,167.6642,286.5653,73.5041,3.066e-05,0.0,8670,0.00012088629,94.26636413936991,490.1674352531436,1.7353226929499998e-08,0.002142686006958016,LEO,LEO,-0.26384944663325693,1
STARLINK-31391,2024-064J,59406,2025-10-13 22:16:14.181024,15.27575616,0.00010832,43.0025,164.7374,271.4367,88.636,1.022e-05,0.0,8678,4.6651991e-05,94.26701925045653,490.19922334418334,5.053343665120001e-09,0.002142715788572035,LEO,LEO,-0.26863537538548155,1
STARLINK-31387,2024-064K,59407,2025-10-13 23:13:35.582880,15.27569922,0.00014357,43.0033,165.0375,271.231,88.8377,-1.446e-05,0.0,8678,-4.3050318e-05,94.26737062972886,490.21627336310394,-6.180734155260001e-09,0.002142731762500643,LEO,LEO,-0.26800144085025496,1
STARLINK-31396,2024-064M,59409,2025-10-13 22:33:07.858656,15.27575527,0.00015117,43.0065,154.4314,278.985,81.0831,-1.635e-05,0.0,8684,-4.9903997e-05,94.26702474266597,490.19948984348866,-7.54398722649e-09,0.0021427160382509643,LEO,LEO,-0.26642584761355026,1
STARLINK-31412,2024-064N,59410,2025-10-13 16:25:30.412992,15.27575942,0.0001603,42.9992,166.3407,285.2069,74.8605,8.86e-06,0.0,8674,4.174022e-05,94.26699913293083,490.1982471784095,6.690957266e-09,0.0021427148740181283,LEO,LEO,-0.26365245181869656,1
STARLINK-31483,2024-064P,59411,2025-10-13 22:58:47.474688,15.2757019,0.00026599,42.9998,164.9518,271.9643,88.0904,0.00033838,0.0,8678,0.0012338564,94.26735409127093,490.21547086598366,3.2819346383600007e-07,0.002142731010650331,LEO,LEO,-0.2604957397460282,1
STARLINK-31568,2024-064Q,59412,2025-10-13 08:55:03.999648,15.27584523,0.00012879,43.0022,168.2964,275.147,84.9235,2.231e-05,0.0,8669,9.0559499e-05,94.266469600779,490.17255258392925,1.1663157876209998e-08,0.002142690801262199,LEO,LEO,-0.26800119498437697,1
STARLINK-31615,2024-064R,59413,2025-10-13 22:52:46.501536,15.27576235,2.016e-05,43.004,157.979,288.093,71.99,-4.19e-06,0.0,8686,-5.713124e-06,94.2669810518491,490.19736982725954,-1.1517657984e-10,0.002142714052042264,LEO,LEO,-0.2601895834367407,1
STARLINK-31457,2024-064S,59414,2025-10-13 22:56:28.788000,15.27567215,0.0001422,43.0038,157.9952,267.5135,92.5554,-1.356e-05,0.0,8686,-3.9765833e-05,94.26753768082146,490.22437919604,-5.6547014526e-09,0.002142739356772062,LEO,LEO,-0.26810916857500156,1
STARLINK-31398,2024-064T,59415,2025-10-13 16:19:57.226944,15.27585669,0.00015971,42.9979,166.3053,257.2118,102.8555,-1.753e-05,0.0,8674,-5.4181449e-05,94.2663988817507,490.1691210667368,-8.653319219789999e-09,0.002142687586355452,LEO,LEO,-0.26653660684061814,1
STARLINK-31399,2024-064U,59416,2025-10-13 22:27:20.300832,15.27572138,0.00026744,42.9994,164.7818,280.1691,79.8859,1.36e-06,0.0,8678,1.4475931e-05,94.26723387907197,490.20963779696103,3.871442986639999e-09,0.0021427255457204027,LEO,LEO,-0.2655745726233506,1
